STARLINK-2022           
1 47643U 21012Z   24089.77415898  .00023490  00000+0  15902-2 0  9998
2 47643  53.0552 358.5519 0001746 110.9809 249.1367 15.06409697172748
